STARLINK-31934          
1 59877U 24098V   26061.39569863  .00000265  00000+0  19159-4 0  9994
2 59877  43.0025 315.4654 0000847 296.0421  64.0344 15.27573471100771
STARLINK-31943          
1 59878U 24098W   26061.13132314  .00006904  00000+0  25767-3 0  9991
2 59878  43.0055 324.7034 0003128 244.1290 115.9239 15.27902120 99990
STARLINK-31926          
1 59879U 24098X   26061.37233070 -.00000010  00000+0  91593-5 0  9994
2 59879  43.0041 308.8171 0001440 271.8248  88.2439 15.27567120100844
STARLINK-31919          
1 59880U 24098Y   26061.41834072 -.00000318  00000+0 -20386-5 0  9994
2 59880  43.0014 319.0996 0001098 260.9261  99.1466 15.27573222100737
STARLINK-31974          
1 59885U 24100A   26061.34508380  .00000974  00000+0  44948-4 0  9990
2 59885  43.0049 166.8788 0001291 272.1922  87.8781 15.27567398 99931
STARLINK-31975          
1 59886U 24100B   26061.67457098  .00004752  00000+0  18204-3 0  9999
2 59886  43.0015 165.0457 0001557 262.9847  97.0828 15.27587543100085
STARLINK-31976          
1 59887U 24100C   26061.71006551  .00001875  00000+0  77624-4 0  9994
2 59887  43.0004 168.7446 0001254 266.6182  93.4526 15.27584517100048
STARLINK-31965          
1 59888U 24100D   26061.68614645  .00027349  00000+0  99846-3 0  9993
2 59888  42.9984 165.1314 0001134 251.7552 108.3176 15.27619841 99988
STARLINK-31969          
1 59889U 24100E   26061.53915090  .00002602  00000+0  10404-3 0  9994
2 59889  42.9971 162.2905 0000758 210.7190 149.3617 15.27577209100106
STARLINK-31951          
1 59890U 24100F   26061.32965629  .00001356  00000+0  58792-4 0  9994
2 59890  43.0019 166.7575 0001272 268.4551  91.6155 15.27580131 99930
STARLINK-31949          
1 59891U 24100G   26061.66814668  .00002685  00000+0  10702-3 0  9992
2 59891  43.0000 164.9913 0001004 286.6449  73.4292 15.27590914 99983
STARLINK-31977          
1 59892U 24100H   26061.64857038 -.00001765  00000+0 -54635-4 0  9993
2 59892  43.0029 157.9313 0000768 262.2850  97.7914 15.27577952100163
STARLINK-31963          
1 59893U 24100J   26061.55152044  .00000834  00000+0  39829-4 0  9991
2 59893  42.9990 165.8390 0000988 239.1179 120.9576 15.27574776100066
STARLINK-31961          
1 59894U 24100K   26061.66655652  .00000890  00000+0  41875-4 0  9993
2 59894  43.0014 158.0634 0000766 239.8689 120.2087 15.27576090100160
STARLINK-31964          
1 59895U 24100L   26061.64631442 -.00001241  00000+0 -35579-4 0  9990
2 59895  43.0033 164.8318 0001904 282.0807  77.9831 15.27579152100036
STARLINK-31905          
1 59896U 24100M   26061.61481577  .00000286  00000+0  19909-4 0  9995
2 59896  42.9993 161.9954 0001215 234.8056 125.2681 15.27576670100111
