[{"OBJECT_NAME":"STARLINK-31934","OBJECT_ID":"2024-098V","EPOCH":"2026-03-02T09:29:48.361632","MEAN_MOTION":15.27573471,"ECCENTRICITY":8.473e-5,"INCLINATION":43.0025,"RA_OF_ASC_NODE":315.4654,"ARG_OF_PERICENTER":296.0421,"MEAN_ANOMALY":64.0344,"EPHEMERIS_TYPE":0,"CLASSIFICATION_TYPE":"U","NORAD_CAT_ID":59877,"ELEMENT_SET_NO":999,"REV_AT_EPOCH":10077,"BSTAR":1.9158846e-5,"MEAN_MOTION_DOT":2.65e-6,"MEAN_MOTION_DDOT":0},{"OBJECT_NAME":"STARLINK-31943","OBJECT_ID":"2024-098W","EPOCH":"2026-03-02T03:09:06.319296","MEAN_MOTION":15.2790212,"ECCENTRICITY":0.00031286,"INCLINATION":43.0055,"RA_OF_ASC_NODE":324.7034,"ARG_OF_PERICENTER":244.129,"MEAN_ANOMALY":115.9239,"EPHEMERIS_TYPE":0,"CLASSIFICATION_TYPE":"U","NORAD_CAT_ID":59878,"ELEMENT_SET_NO":999,"REV_AT_EPOCH":9999,"BSTAR":0.00025767224,"MEAN_MOTION_DOT":6.904e-5,"MEAN_MOTION_DDOT":0},{"OBJECT_NAME":"STARLINK-31926","OBJECT_ID":"2024-098X","EPOCH":"2026-03-02T08:56:09.372480","MEAN_MOTION":15.2756712,"ECCENTRICITY":0.00014405,"INCLINATION":43.0041,"RA_OF_ASC_NODE":308.8171,"ARG_OF_PERICENTER":271.8248,"MEAN_ANOMALY":88.2439,"EPHEMERIS_TYPE":0,"CLASSIFICATION_TYPE":"U","NORAD_CAT_ID":59879,"ELEMENT_SET_NO":999,"REV_AT_EPOCH":10084,"BSTAR":9.159317e-6,"MEAN_MOTION_DOT":-1.0e-7,"MEAN_MOTION_DDOT":0},{"OBJECT_NAME":"STARLINK-31919","OBJECT_ID":"2024-098Y","EPOCH":"2026-03-02T10:02:24.638208","MEAN_MOTION":15.27573222,"ECCENTRICITY":0.00010982,"INCLINATION":43.0014,"RA_OF_ASC_NODE":319.0996,"ARG_OF_PERICENTER":260.9261,"MEAN_ANOMALY":99.1466,"EPHEMERIS_TYPE":0,"CLASSIFICATION_TYPE":"U","NORAD_CAT_ID":59880,"ELEMENT_SET_NO":999,"REV_AT_EPOCH":10073,"BSTAR":-2.038648e-6,"MEAN_MOTION_DOT":-3.18e-6,"MEAN_MOTION_DDOT":0},{"OBJECT_NAME":"STARLINK-31974","OBJECT_ID":"2024-100A","EPOCH":"2026-03-02T08:16:55.240320","MEAN_MOTION":15.27567398,"ECCENTRICITY":0.00012915,"INCLINATION":43.0049,"RA_OF_ASC_NODE":166.8788,"ARG_OF_PERICENTER":272.1922,"MEAN_ANOMALY":87.8781,"EPHEMERIS_TYPE":0,"CLASSIFICATION_TYPE":"U","NORAD_CAT_ID":59885,"ELEMENT_SET_NO":999,"REV_AT_EPOCH":9993,"BSTAR":4.4947741e-5,"MEAN_MOTION_DOT":9.74e-6,"MEAN_MOTION_DDOT":0},{"OBJECT_NAME":"STARLINK-31975","OBJECT_ID":"2024-100B","EPOCH":"2026-03-02T16:11:22.932672","MEAN_MOTION":15.27587543,"ECCENTRICITY":0.0001557,"INCLINATION":43.0015,"RA_OF_ASC_NODE":165.0457,"ARG_OF_PERICENTER":262.9847,"MEAN_ANOMALY":97.0828,"EPHEMERIS_TYPE":0,"CLASSIFICATION_TYPE":"U","NORAD_CAT_ID":59886,"ELEMENT_SET_NO":999,"REV_AT_EPOCH":10008,"BSTAR":0.00018204031,"MEAN_MOTION_DOT":4.752e-5,"MEAN_MOTION_DDOT":0},{"OBJECT_NAME":"STARLINK-31976","OBJECT_ID":"2024-100C","EPOCH":"2026-03-02T17:02:29.660064","MEAN_MOTION":15.27584517,"ECCENTRICITY":0.00012548,"INCLINATION":43.0004,"RA_OF_ASC_NODE":168.7446,"ARG_OF_PERICENTER":266.6182,"MEAN_ANOMALY":93.4526,"EPHEMERIS_TYPE":0,"CLASSIFICATION_TYPE":"U","NORAD_CAT_ID":59887,"ELEMENT_SET_NO":999,"REV_AT_EPOCH":10004,"BSTAR":7.7624354e-5,"MEAN_MOTION_DOT":1.875e-5,"MEAN_MOTION_DDOT":0},{"OBJECT_NAME":"STARLINK-31965","OBJECT_ID":"2024-100D","EPOCH":"2026-03-02T16:28:03.053280","MEAN_MOTION":15.27619841,"ECCENTRICITY":0.0001134,"INCLINATION":42.9984,"RA_OF_ASC_NODE":165.1314,"ARG_OF_PERICENTER":251.7552,"MEAN_ANOMALY":108.3176,"EPHEMERIS_TYPE":0,"CLASSIFICATION_TYPE":"U","NORAD_CAT_ID":59888,"ELEMENT_SET_NO":999,"REV_AT_EPOCH":9998,"BSTAR":0.00099846284,"MEAN_MOTION_DOT":0.00027349,"MEAN_MOTION_DDOT":0},{"OBJECT_NAME":"STARLINK-31969","OBJECT_ID":"2024-100E","EPOCH":"2026-03-02T12:56:22.637760","MEAN_MOTION":15.27577209,"ECCENTRICITY":7.58e-5,"INCLINATION":42.9971,"RA_OF_ASC_NODE":162.2905,"ARG_OF_PERICENTER":210.719,"MEAN_ANOMALY":149.3617,"EPHEMERIS_TYPE":0,"CLASSIFICATION_TYPE":"U","NORAD_CAT_ID":59889,"ELEMENT_SET_NO":999,"REV_AT_EPOCH":10010,"BSTAR":0.00010404143,"MEAN_MOTION_DOT":2.602e-5,"MEAN_MOTION_DDOT":0},{"OBJECT_NAME":"STARLINK-31951","OBJECT_ID":"2024-100F","EPOCH":"2026-03-02T07:54:42.303456","MEAN_MOTION":15.27580131,"ECCENTRICITY":0.00012722,"INCLINATION":43.0019,"RA_OF_ASC_NODE":166.7575,"ARG_OF_PERICENTER":268.4551,"MEAN_ANOMALY":91.6155,"EPHEMERIS_TYPE":0,"CLASSIFICATION_TYPE":"U","NORAD_CAT_ID":59890,"ELEMENT_SET_NO":999,"REV_AT_EPOCH":9993,"BSTAR":5.8791697e-5,"MEAN_MOTION_DOT":1.356e-5,"MEAN_MOTION_DDOT":0},{"OBJECT_NAME":"STARLINK-31949","OBJECT_ID":"2024-100G","EPOCH":"2026-03-02T16:02:07.873152","MEAN_MOTION":15.27590914,"ECCENTRICITY":0.00010044,"INCLINATION":43,"RA_OF_ASC_NODE":164.9913,"ARG_OF_PERICENTER":286.6449,"MEAN_ANOMALY":73.4292,"EPHEMERIS_TYPE":0,"CLASSIFICATION_TYPE":"U","NORAD_CAT_ID":59891,"ELEMENT_SET_NO":999,"REV_AT_EPOCH":9998,"BSTAR":0.00010702275,"MEAN_MOTION_DOT":2.685e-5,"MEAN_MOTION_DDOT":0},{"OBJECT_NAME":"STARLINK-31977","OBJECT_ID":"2024-100H","EPOCH":"2026-03-02T15:33:56.480832","MEAN_MOTION":15.27577952,"ECCENTRICITY":7.68e-5,"INCLINATION":43.0029,"RA_OF_ASC_NODE":157.9313,"ARG_OF_PERICENTER":262.285,"MEAN_ANOMALY":97.7914,"EPHEMERIS_TYPE":0,"CLASSIFICATION_TYPE":"U","NORAD_CAT_ID":59892,"ELEMENT_SET_NO":999,"REV_AT_EPOCH":10016,"BSTAR":-5.4635e-5,"MEAN_MOTION_DOT":-1.765e-5,"MEAN_MOTION_DDOT":0},{"OBJECT_NAME":"STARLINK-31963","OBJECT_ID":"2024-100J","EPOCH":"2026-03-02T13:14:11.366016","MEAN_MOTION":15.27574776,"ECCENTRICITY":9.88e-5,"INCLINATION":42.999,"RA_OF_ASC_NODE":165.839,"ARG_OF_PERICENTER":239.1179,"MEAN_ANOMALY":120.9576,"EPHEMERIS_TYPE":0,"CLASSIFICATION_TYPE":"U","NORAD_CAT_ID":59893,"ELEMENT_SET_NO":999,"REV_AT_EPOCH":10006,"BSTAR":3.9829e-5,"MEAN_MOTION_DOT":8.34e-6,"MEAN_MOTION_DDOT":0},{"OBJECT_NAME":"STARLINK-31961","OBJECT_ID":"2024-100K","EPOCH":"2026-03-02T15:59:50.483328","MEAN_MOTION":15.2757609,"ECCENTRICITY":7.661e-5,"INCLINATION":43.0014,"RA_OF_ASC_NODE":158.0634,"ARG_OF_PERICENTER":239.8689,"MEAN_ANOMALY":120.2087,"EPHEMERIS_TYPE":0,"CLASSIFICATION_TYPE":"U","NORAD_CAT_ID":59894,"ELEMENT_SET_NO":999,"REV_AT_EPOCH":10016,"BSTAR":4.1875206e-5,"MEAN_MOTION_DOT":8.9e-6,"MEAN_MOTION_DDOT":0},{"OBJECT_NAME":"STARLINK-31964","OBJECT_ID":"2024-100L","EPOCH":"2026-03-02T15:30:41.565888","MEAN_MOTION":15.27579152,"ECCENTRICITY":0.0001904,"INCLINATION":43.0033,"RA_OF_ASC_NODE":164.8318,"ARG_OF_PERICENTER":282.0807,"MEAN_ANOMALY":77.9831,"EPHEMERIS_TYPE":0,"CLASSIFICATION_TYPE":"U","NORAD_CAT_ID":59895,"ELEMENT_SET_NO":999,"REV_AT_EPOCH":10003,"BSTAR":-3.5579e-5,"MEAN_MOTION_DOT":-1.241e-5,"MEAN_MOTION_DDOT":0},{"OBJECT_NAME":"STARLINK-31905","OBJECT_ID":"2024-100M","EPOCH":"2026-03-02T14:45:20.082528","MEAN_MOTION":15.2757667,"ECCENTRICITY":0.0001215,"INCLINATION":42.9993,"RA_OF_ASC_NODE":161.9954,"ARG_OF_PERICENTER":234.8056,"MEAN_ANOMALY":125.2681,"EPHEMERIS_TYPE":0,"CLASSIFICATION_TYPE":"U","NORAD_CAT_ID":59896,"ELEMENT_SET_NO":999,"REV_AT_EPOCH":10011,"BSTAR":1.9909e-5,"MEAN_MOTION_DOT":2.86e-6,"MEAN_MOTION_DDOT":0}]
